OBJECT_NAME,OBJECT_ID,EPOCH,MEAN_MOTION,ECCENTRICITY,INCLINATION,RA_OF_ASC_NODE,ARG_OF_PERICENTER,MEAN_ANOMALY,EPHEMERIS_TYPE,CLASSIFICATION_TYPE,NORAD_CAT_ID,ELEMENT_SET_NO,REV_AT_EPOCH,BSTAR,MEAN_MOTION_DOT,MEAN_MOTION_DDOT
STARLINK-35403,2025-235Z,2026-06-12T06:27:45.386784,15.31718819,.00013382,53.1574,165.1268,80.1741,279.9411,0,U,66081,999,3741,.68535229E-3,.20974E-3,0
STARLINK-35011,2025-235AA,2026-06-12T06:47:56.850432,15.31713249,.00011757,53.1567,165.2136,81.8380,278.2754,0,U,66082,999,3741,.90553848E-3,.27851E-3,0
STARLINK-35291,2025-235AB,2026-06-12T05:54:17.904384,15.30216098,.00013991,53.1562,166.4001,137.0392,223.0718,0,U,66083,999,3736,.91814937E-3,.26946E-3,0
STARLINK-35379,2025-235AC,2026-06-12T07:10:07.349088,15.30206653,.00011163,53.1557,166.0153,71.9128,288.1994,0,U,66084,999,3740,.47065157E-3,.13609E-3,0
STARLINK-35370,2025-235AD,2026-06-12T07:19:14.329344,15.30211995,.00010882,53.1554,166.0526,55.1801,304.9302,0,U,66085,999,3737,.66198474E-3,.19305E-3,0
STARLINK-35596,2025-236A,2026-06-11T21:30:49.726368,15.30219332,.00011588,53.1594,26.6084,128.7411,231.3693,0,U,66086,999,3736,.10598286E-2,.3118E-3,0
STARLINK-35563,2025-236B,2026-06-12T06:00:02.999808,15.34426081,.00009893,53.1592,24.4427,80.4878,333.8753,0,U,66087,999,586,-.40341137E-3,-.13992E-3,0
STARLINK-35461,2025-236C,2026-06-11T20:20:55.607712,15.30192028,.00012655,53.1605,26.3058,77.6053,282.5090,0,U,66088,999,3730,.92157829E-3,.27028E-3,0
STARLINK-35571,2025-236D,2026-06-11T20:34:36.238368,15.30194534,.00009386,53.1600,26.3647,119.8185,240.2909,0,U,66089,999,3736,.55890457E-3,.16227E-3,0
STARLINK-35570,2025-236E,2026-06-11T21:45:51.630048,15.30211086,.0000934,53.1597,25.9622,128.8990,231.2095,0,U,66090,999,3737,.77572819E-3,.22694E-3,0
STARLINK-35532,2025-236F,2026-06-11T21:36:46.660320,15.30193273,.00010815,53.1597,25.9186,100.5012,259.6111,0,U,66091,999,3737,.85804327E-3,.25134E-3,0
STARLINK-35527,2025-236G,2026-06-11T22:33:08.626752,15.34392375,.000134,53.1603,25.4648,88.7441,271.3716,0,U,66092,999,3738,.56553456E-3,.18774E-3,0
STARLINK-35500,2025-236H,2026-06-11T20:39:09.873216,15.30198651,.00011206,53.1597,26.3841,89.1583,270.9546,0,U,66093,999,3736,.84433665E-3,.2473E-3,0
STARLINK-35528,2025-236J,2026-06-11T20:30:02.575872,15.30199614,.00011491,53.1604,26.3447,80.8213,279.2918,0,U,66094,999,3736,.23678771E-3,.666E-4,0
STARLINK-35559,2025-236K,2026-06-11T20:25:30.870336,15.30216635,.00010006,53.1591,26.3190,68.6856,291.4252,0,U,66095,999,3736,.84485662E-3,.24759E-3,0
STARLINK-34386,2025-236L,2026-06-11T21:50:25.228608,15.30194001,.00010184,53.1601,25.9805,77.8132,282.2983,0,U,66096,999,3737,.62538193E-3,.18205E-3,0
STARLINK-35613,2025-236M,2026-06-11T22:02:34.821312,15.30192259,.00011389,53.1598,26.0302,94.3222,265.7909,0,U,66097,999,3737,.5411785E-3,.15699E-3,0
STARLINK-34206,2025-236N,2026-06-11T21:08:26.054304,15.34392493,.00012342,53.1604,25.8063,89.8145,270.2999,0,U,66098,999,3736,.86779622E-3,.2905E-3,0
STARLINK-34460,2025-236P,2026-06-11T21:41:18.248352,15.30209526,.00008836,53.1591,25.9423,81.2717,278.8383,0,U,66099,999,3737,.62562633E-3,.18221E-3,0
STARLINK-35609,2025-236Q,2026-06-12T05:24:41.143680,15.34407100,.00015476,53.1600,24.4002,51.3066,308.8074,0,U,66100,999,3736,.86008729E-3,.28801E-3,0
STARLINK-35595,2025-236R,2026-06-11T20:29:10.522464,15.34398261,.00008377,53.1596,26.3409,93.7193,266.3906,0,U,66101,999,3730,.6780319E-3,.226E-3,0
STARLINK-35599,2025-236S,2026-06-11T22:39:12.167712,15.34394268,.00016884,53.1605,25.4871,88.3374,271.7822,0,U,66102,999,3732,.72765395E-3,.24284E-3,0
STARLINK-35622,2025-236T,2026-06-11T20:07:58.366272,15.34420098,.00011072,53.1604,26.2498,95.0365,265.0764,0,U,66103,999,3736,.91304964E-3,.30618E-3,0
STARLINK-35452,2025-236U,2026-06-12T00:00:02.999808,15.34357017,.00012134,53.1603,25.2928,83.4562,192.0865,0,U,66104,999,577,.13024194E-2,.43825E-3,0
STARLINK-35561,2025-236V,2026-06-12T00:00:02.999808,15.34367704,.00010354,53.1602,25.7231,87.1206,327.4680,0,U,66105,999,591,.10703731E-2,.35924E-3,0
STARLINK-35584,2025-236W,2026-06-11T22:36:10.021824,15.34399596,.0001128,53.1602,25.4687,109.6288,250.4836,0,U,66106,999,3738,.94113333E-3,.31555E-3,0
STARLINK-35593,2025-236X,2026-06-11T21:29:38.109408,15.34419596,.00020105,53.1605,25.8904,167.3014,192.8039,0,U,66107,999,3737,.11768703E-2,.39622E-3,0
STARLINK-35590,2025-236Y,2026-06-12T06:00:02.999808,15.34397888,.00008774,53.1594,24.5293,120.1538,247.7909,0,U,66108,999,586,-.36607193E-3,-.12723E-3,0
STARLINK-35545,2025-236Z,2026-06-11T20:14:01.572864,15.34396084,.00009709,53.1599,26.2705,50.5898,309.5190,0,U,66109,999,3736,.86875942E-3,.29086E-3,0
STARLINK-35427,2025-236AA,2026-06-12T05:25:40.854720,15.30191454,.00008178,53.1599,25.1102,104.2061,255.9030,0,U,66110,999,3741,.81767808E-3,.2393E-3,0
STARLINK-35574,2025-236AB,2026-06-11T21:32:20.937984,15.30205567,.00010381,53.1597,26.6098,68.4683,291.6429,0,U,66111,999,3730,.7513749E-3,.21964E-3,0
STARLINK-35531,2025-236AC,2026-06-11T20:37:39.513504,15.30175916,.00012193,53.1591,26.3757,109.6598,250.4534,0,U,66112,999,3736,.46365752E-3,.13388E-3,0
STARLINK-35491,2025-236AD,2026-06-11T21:29:18.833568,15.30216585,.00013581,53.1599,26.5981,78.3250,281.7903,0,U,66113,999,3736,.79271071E-3,.23204E-3,0
STARLINK-35496,2025-237A,2026-06-11T17:38:59.548416,15.34403607,.00011243,53.1608,322.4875,78.8378,281.2751,0,U,66114,999,3701,.78975412E-3,.26404E-3,0
STARLINK-35428,2025-237B,2026-06-12T04:04:11.194464,15.30218589,.00014458,53.1609,320.9320,86.8879,273.2287,0,U,66115,999,3706,.76828524E-3,.22477E-3,0
STARLINK-35573,2025-237C,2026-06-12T06:00:02.999808,15.33561308,.00012165,53.1583,320.1884,79.8061,190.7595,0,U,66116,999,576,.1797003E-2,.59218E-3,0
STARLINK-35572,2025-237D,2026-06-12T03:55:03.694944,15.30245581,.00013855,53.1627,320.8903,75.0712,285.0442,0,U,66117,999,3707,.12349796E-2,.36449E-3,0
STARLINK-35468,2025-237E,2026-06-12T04:13:18.439968,15.30213251,.000095,53.1608,320.9734,76.1372,283.9734,0,U,66118,999,3707,.11218588E-2,.33028E-3,0
STARLINK-35547,2025-237F,2026-06-12T03:30:45.362304,15.30226932,.00013111,53.1584,320.7848,76.1279,283.9867,0,U,66119,999,3707,.95395453E-3,.28024E-3,0
STARLINK-35553,2025-237G,2026-06-11T17:26:52.183104,15.34412284,.00012005,53.1603,322.4350,69.7608,290.3524,0,U,66120,999,3701,.68461175E-3,.22834E-3,0
STARLINK-35631,2025-237H,2026-06-12T04:10:16.015008,15.30211699,.00013704,53.1614,320.9580,62.2982,297.8157,0,U,66121,999,3707,.79303824E-3,.2321E-3,0
STARLINK-35653,2025-237J,2026-06-12T03:52:02.820864,15.30232571,.00013524,53.1600,320.8741,87.9419,272.1737,0,U,66122,999,3707,.71981607E-3,.21042E-3,0
STARLINK-35628,2025-237K,2026-06-12T03:18:35.177760,15.30229610,.00012323,53.1588,320.7296,61.8775,298.2350,0,U,66123,999,3707,.92528825E-3,.27171E-3,0
STARLINK-35645,2025-237L,2026-06-12T03:19:55.059744,15.34419716,.00012201,53.1591,320.7358,81.3540,278.7601,0,U,66124,999,3707,.68247391E-3,.22767E-3,0
STARLINK-35649,2025-237M,2026-06-11T17:36:02.798208,15.30205965,.00011016,53.1599,322.4704,67.2142,292.8975,0,U,66125,999,3701,.99100497E-3,.29112E-3,0
STARLINK-35658,2025-237N,2026-06-12T00:00:02.999808,15.34321392,.00014506,53.1588,321.2032,92.6458,313.2900,0,U,66126,999,591,.11183917E-2,.37505E-3,0
STARLINK-35629,2025-237P,2026-06-11T17:22:31.919520,15.30212446,.00009773,53.1603,323.1265,12.6467,347.4558,0,U,66127,999,3700,.88273381E-3,.25886E-3,0
STARLINK-35612,2025-237Q,2026-06-12T04:08:44.926080,15.30206926,.00015585,53.1614,320.9512,69.6126,290.5042,0,U,66128,999,3707,.79273489E-3,.23198E-3,0
STARLINK-35632,2025-237R,2026-06-12T03:59:37.667616,15.30206419,.00011388,53.1608,320.9076,85.6029,274.5102,0,U,66129,999,3707,.69455992E-3,.20272E-3,0
STARLINK-35637,2025-237S,2026-06-11T18:26:11.463072,15.30209550,.00009224,53.1612,322.6878,94.4834,265.6272,0,U,66130,999,3701,.75243516E-3,.21998E-3,0
STARLINK-35630,2025-237T,2026-06-11T17:29:54.115584,15.34402282,.00008062,53.1598,322.4462,84.3177,275.7917,0,U,66131,999,3701,.96046594E-3,.32216E-3,0
STARLINK-34412,2025-237U,2026-06-12T06:00:02.999808,15.33557725,.00013535,53.1592,320.2751,79.8033,144.7338,0,U,66132,999,587,.1816041E-2,.59847E-3,0
STARLINK-35520,2025-237V,2026-06-12T06:00:02.999808,15.34341625,.00011525,53.1591,320.0558,111.6214,224.4706,0,U,66133,999,587,.20961079E-2,.70984E-3,0
STARLINK-35525,2025-237W,2026-06-11T18:00:11.327904,15.34430233,.00021618,53.1593,322.5753,169.4014,190.7034,0,U,66134,999,3701,.93266915E-3,.31298E-3,0
STARLINK-34852,2025-237X,2026-06-11T17:02:46.495968,15.30217390,.00009206,53.1619,323.0356,59.3714,300.7377,0,U,66135,999,3696,.85893141E-3,.2518E-3,0
STARLINK-35592,2025-237Y,2026-06-12T06:00:02.999808,15.34368518,.00011033,53.1585,320.1228,112.6819,188.4581,0,U,66136,999,587,.21004245E-2,.71194E-3,0
STARLINK-35576,2025-237Z,2026-06-11T23:56:29.234976,15.31054223,.00030558,53.1585,321.2736,139.8426,220.2801,0,U,66137,999,3705,.15733012E-1,.512413E-2,0
STARLINK-35623,2025-237AA,2026-06-11T17:19:29.574912,15.30203258,.00006688,53.1597,323.1051,58.7098,301.3968,0,U,66138,999,3700,.64939601E-3,.18925E-3,0
STARLINK-35549,2025-237AB,2026-06-12T03:14:03.942240,15.30207184,.00009819,53.1589,320.7057,67.0183,293.0921,0,U,66139,999,3707,.14707759E-2,.43466E-3,0
STARLINK-35625,2025-237AC,2026-06-12T03:10:50.441664,15.34435559,.00012668,53.1597,320.6936,89.4792,270.6356,0,U,66140,999,3707,.65267511E-3,.21764E-3,0
STARLINK-35603,2025-237AD,2026-06-11T18:09:16.961184,15.34428972,.00009088,53.1607,322.6124,93.7745,266.3361,0,U,66141,999,3701,.14516869E-2,.49038E-3,0
TJS-20,2025-238A,2026-06-11T23:48:25.720704,1.00273331,.00045722,5.4820,299.5728,160.1959,220.0726,0,U,66142,999,228,0,.4E-6,0
STARLINK-35318,2025-240A,2026-06-11T19:10:01.238880,15.34397290,.00008412,53.1591,344.5092,63.6581,296.4508,0,U,66146,999,3646,.80590104E-3,.26948E-3,0
STARLINK-33948,2025-240B,2026-06-11T19:00:21.608928,15.30210378,.00010601,53.1602,345.8823,106.5485,253.5633,0,U,66147,999,3644,.8686072E-3,.25463E-3,0
